STARLINK-32785          
1 62531U 25004W   26068.47711074  .00025032  00000+0  91582-3 0  9990
2 62531  42.9988 221.2873 0001386 240.6618 119.4095 15.27588924 66427
FLOCK 4G-24             
1 62637U 25009AE  26068.72509072  .00010513  00000+0  38996-3 0  9991
2 62637  97.4061 151.5140 0001802 280.2808  79.8228 15.27784978 63732
